{
"type": "FeatureCollection",
"name": "training_polygons_v2",
"crs": { "type": "name", "properties": { "name": "urn:ogc:def:crs:EPSG::32701" } },
"features": [
{ "type": "Feature", "properties": { "class_id": 1, "class_name": "Ocean_water" }, "geometry": { "type": "Polygon", "coordinates": [ [ [ 664183.904635372688062, 7725859.926008610986173 ], [ 664109.912769429502077, 7724779.644765839911997 ], [ 665352.976117275538854, 7724927.628497726283967 ], [ 665249.387504955055192, 7725919.119501365348697 ], [ 664183.904635372688062, 7725859.926008610986173 ] ] ] } },
{ "type": "Feature", "properties": { "class_id": 1, "class_name": "Ocean_water" }, "geometry": { "type": "Polygon", "coordinates": [ [ [ 668845.392189795384184, 7729633.511171714402735 ], [ 668564.223099211230874, 7728989.781938008032739 ], [ 669059.968601030763239, 7728871.394952499307692 ], [ 669289.343385454732925, 7729633.511171714402735 ], [ 668845.392189795384184, 7729633.511171714402735 ] ] ] } },
{ "type": "Feature", "properties": { "class_id": 1, "class_name": "Ocean_water" }, "geometry": { "type": "Polygon", "coordinates": [ [ [ 662859.450234988820739, 7721316.825439695268869 ], [ 663554.973774855025113, 7720088.560465037822723 ], [ 664650.053390814689919, 7720961.664483168162405 ], [ 663466.183535723132081, 7721316.825439695268869 ], [ 663288.603057459462434, 7721819.970128108747303 ], [ 662859.450234988820739, 7721316.825439695268869 ] ] ] } },
{ "type": "Feature", "properties": { "class_id": 1, "class_name": "Ocean_water" }, "geometry": { "type": "Polygon", "coordinates": [ [ [ 664176.505448778043501, 7727073.392610077746212 ], [ 663969.328224137076177, 7726451.860936154611409 ], [ 664694.448510380578227, 7726067.103233249858022 ], [ 665197.593198794522323, 7726629.441414418630302 ], [ 664990.415974153554998, 7727250.973088341765106 ], [ 664176.505448778043501, 7727073.392610077746212 ] ] ] } },
{ "type": "Feature", "properties": { "class_id": 1, "class_name": "Ocean_water" }, "geometry": { "type": "Polygon", "coordinates": [ [ [ 675245.688593883765861, 7721864.365247674286366 ], [ 674964.519503299612552, 7721109.648215053603053 ], [ 676281.574717088835314, 7720680.495392582379282 ], [ 676222.38122433423996, 7721805.171754919923842 ], [ 675245.688593883765861, 7721864.365247674286366 ] ] ] } },
{ "type": "Feature", "properties": { "class_id": 1, "class_name": "Ocean_water" }, "geometry": { "type": "Polygon", "coordinates": [ [ [ 666681.130110956029966, 7725190.299621821381152 ], [ 666577.541498635546304, 7724139.615125427953899 ], [ 666107.693149896105751, 7724864.735411671921611 ], [ 666429.557766749057919, 7725460.369932514615357 ], [ 666681.130110956029966, 7725190.299621821381152 ] ] ] } },
{ "type": "Feature", "properties": { "class_id": 1, "class_name": "Ocean_water" }, "geometry": { "type": "Polygon", "coordinates": [ [ [ 653222.009695884422399, 7718323.854462293908 ], [ 653976.726728505222127, 7718087.080491275526583 ], [ 654524.26653648505453, 7719004.579628971405327 ], [ 655412.168927803752013, 7718605.023552877828479 ], [ 654835.032373446621932, 7716829.218770240433514 ], [ 653340.396681393613108, 7716755.226904297247529 ], [ 653222.009695884422399, 7718323.854462293908 ] ] ] } },
{ "type": "Feature", "properties": { "class_id": 1, "class_name": "Ocean_water" }, "geometry": { "type": "Polygon", "coordinates": [ [ [ 652075.135773764457554, 7721993.851013077422976 ], [ 652800.256060007959604, 7719951.675513044930995 ], [ 653480.981226685689762, 7722408.205462359823287 ], [ 652075.135773764457554, 7721993.851013077422976 ] ] ] } },
{ "type": "Feature", "properties": { "class_id": 1, "class_name": "Ocean_water" }, "geometry": { "type": "Polygon", "coordinates": [ [ [ 677228.67060116212815, 7717868.804486743174493 ], [ 678641.915240677655675, 7716388.967167879454792 ], [ 679115.463182714185677, 7718201.767883487977087 ], [ 677228.67060116212815, 7717868.804486743174493 ] ] ] } },
{ "type": "Feature", "properties": { "class_id": 1, "class_name": "Ocean_water" }, "geometry": { "type": "Polygon", "coordinates": [ [ [ 667099.184153535286896, 7731179.941169927828014 ], [ 667498.740229628630914, 7730580.607055787928402 ], [ 668519.827979645109735, 7731172.541983333416283 ], [ 668246.058075655251741, 7731660.888298559002578 ], [ 667099.184153535286896, 7731179.941169927828014 ] ] ] } },
{ "type": "Feature", "properties": { "class_id": 1, "class_name": "Ocean_water" }, "geometry": { "type": "Polygon", "coordinates": [ [ [ 683259.007675534347072, 7728042.686053935438395 ], [ 683569.773512495914474, 7726148.494285789318383 ], [ 684324.490545116714202, 7729122.96729670651257 ], [ 683259.007675534347072, 7728042.686053935438395 ] ] ] } },
{ "type": "Feature", "properties": { "class_id": 1, "class_name": "Ocean_water" }, "geometry": { "type": "Polygon", "coordinates": [ [ [ 652071.436180467135273, 7732837.358967057429254 ], [ 651975.246754740946926, 7731949.456575739197433 ], [ 652707.766227578860708, 7731838.468776823952794 ], [ 652715.165414173156023, 7732763.367101114243269 ], [ 652071.436180467135273, 7732837.358967057429254 ] ] ] } },
{ "type": "Feature", "properties": { "class_id": 1, "class_name": "Ocean_water" }, "geometry": { "type": "Polygon", "coordinates": [ [ [ 672160.22778405144345, 7720243.943383522331715 ], [ 671945.651372816064395, 7719740.798695107921958 ], [ 672922.344003266538493, 7719555.819030250422657 ], [ 672685.570032248273492, 7720665.697019398212433 ], [ 672160.22778405144345, 7720243.943383522331715 ] ] ] } },
{ "type": "Feature", "properties": { "class_id": 1, "class_name": "Ocean_water" }, "geometry": { "type": "Polygon", "coordinates": [ [ [ 677717.016916387248784, 7724298.697637212462723 ], [ 678146.169738857890479, 7722996.440796611830592 ], [ 678678.911173649015836, 7722981.642423423007131 ], [ 678664.112800460425206, 7724875.834191570058465 ], [ 677717.016916387248784, 7724298.697637212462723 ] ] ] } },
{ "type": "Feature", "properties": { "class_id": 2, "class_name": "Dark_ocean_water" }, "geometry": { "type": "Polygon", "coordinates": [ [ [ 679936.772894683526829, 7735101.510064924135804 ], [ 679958.970454466529191, 7734761.147481585852802 ], [ 680306.73222439957317, 7734960.925519632175565 ], [ 680040.361507004010491, 7735464.070208046585321 ], [ 679936.772894683526829, 7735101.510064924135804 ] ] ] } },
{ "type": "Feature", "properties": { "class_id": 2, "class_name": "Dark_ocean_water" }, "geometry": { "type": "Polygon", "coordinates": [ [ [ 681383.313873873092234, 7735046.016165469773114 ], [ 681350.017534198705107, 7734735.250328508205712 ], [ 681135.441122963326052, 7734779.645448074676096 ], [ 681116.943156477529556, 7734690.85520894266665 ], [ 681157.638682746328413, 7734587.266596621833742 ], [ 681105.844376586028375, 7734435.583271438255906 ], [ 681135.441122963326052, 7734187.710520528256893 ], [ 681779.170356669346802, 7734446.682051329873502 ], [ 681383.313873873092234, 7735046.016165469773114 ] ] ] } },
{ "type": "Feature", "properties": { "class_id": 2, "class_name": "Dark_ocean_water" }, "geometry": { "type": "Polygon", "coordinates": [ [ [ 657735.513518420164473, 7733510.684947147034109 ], [ 657646.723279288271442, 7732915.050426304340363 ], [ 658160.966747593600303, 7733344.203248774632812 ], [ 658090.674474947620183, 7733714.162578490562737 ], [ 657735.513518420164473, 7733510.684947147034109 ] ] ] } },
{ "type": "Feature", "properties": { "class_id": 2, "class_name": "Dark_ocean_water" }, "geometry": { "type": "Polygon", "coordinates": [ [ [ 658826.893541082623415, 7732789.264254200272262 ], [ 658749.202081842231564, 7732397.107364701107144 ], [ 658852.790694162715226, 7732419.304924484342337 ], [ 658967.478086374700069, 7731797.773250561207533 ], [ 659344.836602685158141, 7733055.634971595369279 ], [ 658826.893541082623415, 7732789.264254200272262 ] ] ] } },
{ "type": "Feature", "properties": { "class_id": 2, "class_name": "Dark_ocean_water" }, "geometry": { "type": "Polygon", "coordinates": [ [ [ 656122.490840857848525, 7732349.012651837430894 ], [ 655967.107922377064824, 7731668.287485159933567 ], [ 656699.62739521486219, 7731831.069590235128999 ], [ 656122.490840857848525, 7732349.012651837430894 ] ] ] } },
{ "type": "Feature", "properties": { "class_id": 2, "class_name": "Dark_ocean_water" }, "geometry": { "type": "Polygon", "coordinates": [ [ [ 678038.881533239618875, 7735856.227097544819117 ], [ 678283.054690852179192, 7735234.695423621684313 ], [ 678571.622968030744232, 7735693.444992469623685 ], [ 677957.490480702021159, 7736078.202695374377072 ], [ 677868.700241570244543, 7735937.618150082416832 ], [ 678038.881533239618875, 7735856.227097544819117 ] ] ] } },
{ "type": "Feature", "properties": { "class_id": 2, "class_name": "Dark_ocean_water" }, "geometry": { "type": "Polygon", "coordinates": [ [ [ 659178.354904312756844, 7730625.002175358124077 ], [ 659019.272392534883693, 7730158.853419916704297 ], [ 659389.231722250930034, 7729607.614018639549613 ], [ 659330.038229496334679, 7730436.322917203418911 ], [ 659178.354904312756844, 7730625.002175358124077 ] ] ] } },
{ "type": "Feature", "properties": { "class_id": 2, "class_name": "Dark_ocean_water" }, "geometry": { "type": "Polygon", "coordinates": [ [ [ 659330.038229496451095, 7728982.382751419208944 ], [ 659441.026028411230072, 7728161.073039448820055 ], [ 659692.59837261820212, 7727939.097441619262099 ], [ 659581.610573703306727, 7728915.79007207043469 ], [ 659330.038229496451095, 7728982.382751419208944 ] ] ] } },
{ "type": "Feature", "properties": { "class_id": 2, "class_name": "Dark_ocean_water" }, "geometry": { "type": "Polygon", "coordinates": [ [ [ 657546.834260264527984, 7732400.806957993656397 ], [ 657998.184642518172041, 7731757.077724288217723 ], [ 657857.600097226095386, 7732408.206144588068128 ], [ 657546.834260264527984, 7732400.806957993656397 ] ] ] } },
{ "type": "Feature", "properties": { "class_id": 2, "class_name": "Dark_ocean_water" }, "geometry": { "type": "Polygon", "coordinates": [ [ [ 667654.123148108366877, 7735989.412456239573658 ], [ 667491.34104303328786, 7735612.053939929232001 ], [ 667890.897119126748294, 7735441.872648259624839 ], [ 668157.267836522310972, 7735959.815709861926734 ], [ 667654.123148108366877, 7735989.412456239573658 ] ] ] } },
{ "type": "Feature", "properties": { "class_id": 2, "class_name": "Dark_ocean_water" }, "geometry": { "type": "Polygon", "coordinates": [ [ [ 670045.910214722971432, 7732476.648620584979653 ], [ 670010.764078399864957, 7732232.475462972186506 ], [ 670513.908766813809052, 7732176.981563515029848 ], [ 670045.910214722971432, 7732476.648620584979653 ] ] ] } },
{ "type": "Feature", "properties": { "class_id": 2, "class_name": "Dark_ocean_water" }, "geometry": { "type": "Polygon", "coordinates": [ [ [ 666727.375027169939131, 7733736.360138267278671 ], [ 666668.181534415343776, 7733621.672746054828167 ], [ 667208.322155800764449, 7733288.709349310956895 ], [ 667249.017682069563307, 7733458.890640979632735 ], [ 666727.375027169939131, 7733736.360138267278671 ] ] ] } },
{ "type": "Feature", "properties": { "class_id": 2, "class_name": "Dark_ocean_water" }, "geometry": { "type": "Polygon", "coordinates": [ [ [ 667866.849762695492245, 7734997.921452601440251 ], [ 667800.25708334648516, 7734576.16781672462821 ], [ 668229.409905817243271, 7734346.793032300658524 ], [ 668251.607465600129217, 7734886.933653686195612 ], [ 667866.849762695492245, 7734997.921452601440251 ] ] ] } },
{ "type": "Feature", "properties": { "class_id": 2, "class_name": "Dark_ocean_water" }, "geometry": { "type": "Polygon", "coordinates": [ [ [ 659646.353456403710879, 7730815.531230160035193 ], [ 659683.349389375420287, 7730499.216003253124654 ], [ 660044.05973584856838, 7730523.263359684497118 ], [ 659846.131494450499304, 7730865.475739671848714 ], [ 659646.353456403710879, 7730815.531230160035193 ] ] ] } },
{ "type": "Feature", "properties": { "class_id": 3, "class_name": "Bare_soil" }, "geometry": { "type": "Polygon", "coordinates": [ [ [ 667043.690254076966085, 7727077.092203377746046 ], [ 666862.410182516090572, 7727080.791796674020588 ], [ 666803.216689761495218, 7727326.81475093588233 ], [ 666792.117909869994037, 7727482.197669416666031 ], [ 666978.947371376678348, 7727515.494009090587497 ], [ 667043.690254076966085, 7727077.092203377746046 ] ] ] } },
{ "type": "Feature", "properties": { "class_id": 3, "class_name": "Bare_soil" }, "geometry": { "type": "Polygon", "coordinates": [ [ [ 666808.766079707071185, 7727176.056324077770114 ], [ 666624.711313173291273, 7726998.475845813751221 ], [ 666861.485284191556275, 7727030.847287164069712 ], [ 666808.766079707071185, 7727176.056324077770114 ] ] ] } },
{ "type": "Feature", "properties": { "class_id": 3, "class_name": "Bare_soil" }, "geometry": { "type": "Polygon", "coordinates": [ [ [ 667150.978459694772027, 7727768.916149945929646 ], [ 666932.702455162303522, 7727731.920216973870993 ], [ 666806.916283058817498, 7727511.794415792450309 ], [ 667306.361378175555728, 7727522.893195684067905 ], [ 667150.978459694772027, 7727768.916149945929646 ] ] ] } },
{ "type": "Feature", "properties": { "class_id": 3, "class_name": "Bare_soil" }, "geometry": { "type": "Polygon", "coordinates": [ [ [ 666997.445337862591259, 7727513.644212441518903 ], [ 667304.511581526952796, 7727522.893195684067905 ], [ 667356.305887687252834, 7727090.040779916569591 ], [ 667147.278866397682577, 7727236.174715153872967 ], [ 667051.089440671494231, 7727073.392610079608858 ], [ 666997.445337862591259, 7727513.644212441518903 ] ] ] } },
{ "type": "Feature", "properties": { "class_id": 3, "class_name": "Bare_soil" }, "geometry": { "type": "Polygon", "coordinates": [ [ [ 667169.476426180568524, 7727785.564319782890379 ], [ 667648.573758162907325, 7727896.552118697203696 ], [ 667766.960743672098033, 7727617.232824761420488 ], [ 667317.460158067056909, 7727509.944619144313037 ], [ 667169.476426180568524, 7727785.564319782890379 ] ] ] } },
{ "type": "Feature", "properties": { "class_id": 3, "class_name": "Bare_soil" }, "geometry": { "type": "Polygon", "coordinates": [ [ [ 667313.760564769851044, 7727491.44665265828371 ], [ 667395.15161730744876, 7727016.048913973383605 ], [ 667840.952609615284018, 7727102.989356456324458 ], [ 667596.779452002723701, 7727300.91759785450995 ], [ 667598.629248651326634, 7727569.138111898675561 ], [ 667313.760564769851044, 7727491.44665265828371 ] ] ] } },
{ "type": "Feature", "properties": { "class_id": 3, "class_name": "Bare_soil" }, "geometry": { "type": "Polygon", "coordinates": [ [ [ 667622.676605082815513, 7727578.387095142155886 ], [ 667633.775384974316694, 7727397.107023580931127 ], [ 667768.810540320700966, 7727434.102956552058458 ], [ 667872.399152641184628, 7727430.403363254852593 ], [ 667835.403219669591635, 7727646.829571139067411 ], [ 667622.676605082815513, 7727578.387095142155886 ] ] ] } },
{ "type": "Feature", "properties": { "class_id": 3, "class_name": "Bare_soil" }, "geometry": { "type": "Polygon", "coordinates": [ [ [ 666675.580721009639092, 7726934.65786143578589 ], [ 666599.739058417850174, 7726875.464368681423366 ], [ 667093.634763588779606, 7726875.464368681423366 ], [ 667017.793100996990688, 7727053.044846944510937 ], [ 666675.580721009639092, 7726934.65786143578589 ] ] ] } },
{ "type": "Feature", "properties": { "class_id": 3, "class_name": "Bare_soil" }, "geometry": { "type": "Polygon", "coordinates": [ [ [ 667937.142035341938026, 7727990.891747775487602 ], [ 667779.909320213133469, 7727642.205079518258572 ], [ 668253.457262248266488, 7727920.599475129507482 ], [ 667937.142035341938026, 7727990.891747775487602 ] ] ] } },
{ "type": "Feature", "properties": { "class_id": 3, "class_name": "Bare_soil" }, "geometry": { "type": "Polygon", "coordinates": [ [ [ 668175.765803007991053, 7728168.472226038575172 ], [ 668035.181257716263644, 7728013.089307557791471 ], [ 668260.856448842328973, 7727933.54805166926235 ], [ 668345.947094676783308, 7727755.967573406174779 ], [ 668401.440994134056382, 7728251.71307522431016 ], [ 668175.765803007991053, 7728168.472226038575172 ] ] ] } },
{ "type": "Feature", "properties": { "class_id": 3, "class_name": "Bare_soil" }, "geometry": { "type": "Polygon", "coordinates": [ [ [ 668431.037740511237644, 7728183.270599227398634 ], [ 668399.591197485453449, 7727759.667166703380644 ], [ 668523.527572939987294, 7727707.872860543429852 ], [ 668732.554594228975475, 7728016.788900854997337 ], [ 668836.143206549226306, 7728100.029750040732324 ], [ 668431.037740511237644, 7728183.270599227398634 ] ] ] } },
{ "type": "Feature", "properties": { "class_id": 3, "class_name": "Bare_soil" }, "geometry": { "type": "Polygon", "coordinates": [ [ [ 668257.156855545123108, 7727899.326813670806587 ], [ 668425.488350565428846, 7727552.489942062646151 ], [ 668322.82463656947948, 7727407.280905149877071 ], [ 668135.995175063493662, 7727843.832914213649929 ], [ 668257.156855545123108, 7727899.326813670806587 ] ] ] } },
{ "type": "Feature", "properties": { "class_id": 3, "class_name": "Bare_soil" }, "geometry": { "type": "Polygon", "coordinates": [ [ [ 667861.300372750032693, 7727673.651622544042766 ], [ 668113.7976152804913, 7727820.710456105880439 ], [ 668188.714379547862336, 7727690.299792381934822 ], [ 667869.624457668629475, 7727566.363416926935315 ], [ 667861.300372750032693, 7727673.651622544042766 ] ] ] } },
{ "type": "Feature", "properties": { "class_id": 3, "class_name": "Bare_soil" }, "geometry": { "type": "Polygon", "coordinates": [ [ [ 667916.794272207422182, 7727558.039332009851933 ], [ 667942.691425287513994, 7727374.909463800489902 ], [ 668297.85238181380555, 7727382.308650394901633 ], [ 668181.315192953683436, 7727619.082621412351727 ], [ 667916.794272207422182, 7727558.039332009851933 ] ] ] } },
{ "type": "Feature", "properties": { "class_id": 3, "class_name": "Bare_soil" }, "geometry": { "type": "Polygon", "coordinates": [ [ [ 668283.978906949749216, 7728371.949857379309833 ], [ 668237.733990735374391, 7728218.416735547594726 ], [ 668399.59119748568628, 7728279.460024951025844 ], [ 668283.978906949749216, 7728371.949857379309833 ] ] ] } },
{ "type": "Feature", "properties": { "class_id": 4, "class_name": "Vegetation" }, "geometry": { "type": "Polygon", "coordinates": [ [ [ 666116.942133144009858, 7726391.742545080371201 ], [ 666041.100470552453771, 7726517.528717183507979 ], [ 666027.226995688164607, 7726695.10919544659555 ], [ 666230.704627031343989, 7726589.670786478556693 ], [ 666179.835219195578247, 7726488.856869131326675 ], [ 666195.558490708470345, 7726467.58420767262578 ], [ 666223.305440437048674, 7726448.161342862062156 ], [ 666116.942133144009858, 7726391.742545080371201 ] ] ] } },
{ "type": "Feature", "properties": { "class_id": 4, "class_name": "Vegetation" }, "geometry": { "type": "Polygon", "coordinates": [ [ [ 666074.396810226957314, 7726893.037436841987073 ], [ 666041.100470552686602, 7726698.80878874193877 ], [ 666110.46784487424884, 7726662.737754094414413 ], [ 666169.661337628611363, 7726942.057048029266298 ], [ 666074.396810226957314, 7726893.037436841987073 ] ] ] } },
{ "type": "Feature", "properties": { "class_id": 4, "class_name": "Vegetation" }, "geometry": { "type": "Polygon", "coordinates": [ [ [ 666121.566624765633605, 7726659.963059121742845 ], [ 666224.230338761582971, 7726610.018549610860646 ], [ 666412.909596916171722, 7726728.405535119585693 ], [ 666186.309507465804927, 7726943.906844678334892 ], [ 666121.566624765633605, 7726659.963059121742845 ] ] ] } },
{ "type": "Feature", "properties": { "class_id": 4, "class_name": "Vegetation" }, "geometry": { "type": "Polygon", "coordinates": [ [ [ 666238.10381362598855, 7726921.709284895099699 ], [ 666441.581444969167933, 7727041.021168728359044 ], [ 666409.210003619082272, 7726763.551671442575753 ], [ 666238.10381362598855, 7726921.709284895099699 ] ] ] } },
{ "type": "Feature", "properties": { "class_id": 4, "class_name": "Vegetation" }, "geometry": { "type": "Polygon", "coordinates": [ [ [ 666424.933275131741539, 7726782.512087089009583 ], [ 666456.379818157525733, 7727147.846925183199346 ], [ 666555.343938856269233, 7727132.123653669841588 ], [ 666518.348005884792656, 7726947.143988812342286 ], [ 666424.933275131741539, 7726782.512087089009583 ] ] ] } },
{ "type": "Feature", "properties": { "class_id": 4, "class_name": "Vegetation" }, "geometry": { "type": "Polygon", "coordinates": [ [ [ 666414.759393564541824, 7727424.39152414444834 ], [ 666436.95695334742777, 7727171.894281613640487 ], [ 666558.118633829057217, 7727145.997128534130752 ], [ 666637.659889717819169, 7727380.921302903443575 ], [ 666414.759393564541824, 7727424.39152414444834 ] ] ] } },
{ "type": "Feature", "properties": { "class_id": 4, "class_name": "Vegetation" }, "geometry": { "type": "Polygon", "coordinates": [ [ [ 666419.383885186165571, 7727648.216918622143567 ], [ 666533.146379073499702, 7727425.316422468982637 ], [ 666686.679500905214809, 7727404.968659334816039 ], [ 666642.284381339442916, 7727497.458491764031351 ], [ 666555.343938856385648, 7727511.331966628320515 ], [ 666419.383885186165571, 7727648.216918622143567 ] ] ] } },
{ "type": "Feature", "properties": { "class_id": 4, "class_name": "Vegetation" }, "geometry": { "type": "Polygon", "coordinates": [ [ [ 667180.112756912596524, 7727097.671191090717912 ], [ 667136.642535671126097, 7727084.722614550963044 ], [ 667105.658441807492636, 7727017.205036877654493 ], [ 667126.00620494177565, 7727012.58054525591433 ], [ 667194.911130101187155, 7727082.410368739627302 ], [ 667180.112756912596524, 7727097.671191090717912 ] ] ] } },
{ "type": "Feature", "properties": { "class_id": 4, "class_name": "Vegetation" }, "geometry": { "type": "Polygon", "coordinates": [ [ [ 668253.919711410533637, 7728605.25545967835933 ], [ 668454.622647780925035, 7728391.603946768678725 ], [ 668520.290428805281408, 7728488.718270818702877 ], [ 668253.919711410533637, 7728605.25545967835933 ] ] ] } },
{ "type": "Feature", "properties": { "class_id": 4, "class_name": "Vegetation" }, "geometry": { "type": "Polygon", "coordinates": [ [ [ 668523.065123778185807, 7728480.394185899756849 ], [ 668456.472444429527968, 7728391.603946768678725 ], [ 668700.645602041389793, 7728276.91655455622822 ], [ 668755.2146031743614, 7728423.050489794462919 ], [ 668634.977821016917005, 7728406.402319956570864 ], [ 668523.065123778185807, 7728480.394185899756849 ] ] ] } },
{ "type": "Feature", "properties": { "class_id": 4, "class_name": "Vegetation" }, "geometry": { "type": "Polygon", "coordinates": [ [ [ 668758.914196471683681, 7728417.501099849119782 ], [ 668881.000775277614594, 7728365.70679368916899 ], [ 668889.324860196211375, 7728317.61208082549274 ], [ 669022.510218893643469, 7728309.287995907478034 ], [ 668988.288980894954875, 7728207.54918023571372 ], [ 668708.044788635801524, 7728279.691249529831111 ], [ 668758.914196471683681, 7728417.501099849119782 ] ] ] } },
{ "type": "Feature", "properties": { "class_id": 4, "class_name": "Vegetation" }, "geometry": { "type": "Polygon", "coordinates": [ [ [ 669029.909405487705953, 7728301.888809313997626 ], [ 669361.023005582625046, 7728118.758941104635596 ], [ 669431.315278228488751, 7727996.672362298704684 ], [ 668993.838370840530843, 7728196.450400345027447 ], [ 669029.909405487705953, 7728301.888809313997626 ] ] ] } },
{ "type": "Feature", "properties": { "class_id": 4, "class_name": "Vegetation" }, "geometry": { "type": "Polygon", "coordinates": [ [ [ 668457.859791915747337, 7728382.354963523335755 ], [ 668472.658165104337968, 7728289.865131095051765 ], [ 668696.483559581916779, 7728162.229162343777716 ], [ 668979.502446813858114, 7728204.774485260248184 ], [ 668696.483559581916779, 7728272.292062933556736 ], [ 668457.859791915747337, 7728382.354963523335755 ] ] ] } },
{ "type": "Feature", "properties": { "class_id": 4, "class_name": "Vegetation" }, "geometry": { "type": "Polygon", "coordinates": [ [ [ 668985.51428592170123, 7728199.687544476240873 ], [ 668789.898290334967896, 7728174.715289720334113 ], [ 668964.704073625267483, 7728148.355687477625906 ], [ 669188.067018940695561, 7728052.6287109144032 ], [ 669197.316002183477394, 7728097.023830479942262 ], [ 668985.51428592170123, 7728199.687544476240873 ] ] ] } },
{ "type": "Feature", "properties": { "class_id": 5, "class_name": "Cloud" }, "geometry": { "type": "Polygon", "coordinates": [ [ [ 665923.638383368146606, 7728356.920259604230523 ], [ 666251.052390165859833, 7728292.17737690359354 ], [ 666711.651755661005154, 7728643.638740132562816 ], [ 666127.116014711325988, 7728715.78080942761153 ], [ 665923.638383368146606, 7728356.920259604230523 ] ] ] } },
{ "type": "Feature", "properties": { "class_id": 5, "class_name": "Cloud" }, "geometry": { "type": "Polygon", "coordinates": [ [ [ 666778.244435009779409, 7728706.531826184131205 ], [ 666648.758669609436765, 7729146.783428545109928 ], [ 665816.350177750806324, 7728850.81596477329731 ], [ 666778.244435009779409, 7728706.531826184131205 ] ] ] } },
{ "type": "Feature", "properties": { "class_id": 5, "class_name": "Cloud" }, "geometry": { "type": "Polygon", "coordinates": [ [ [ 665063.482941780705005, 7729209.676514596678317 ], [ 665527.781900573056191, 7728767.575115587562323 ], [ 666069.772318605449982, 7729339.16227999702096 ], [ 665063.482941780705005, 7729209.676514596678317 ] ] ] } },
{ "type": "Feature", "properties": { "class_id": 5, "class_name": "Cloud" }, "geometry": { "type": "Polygon", "coordinates": [ [ [ 664900.70083670609165, 7730347.301453472115099 ], [ 664608.432966231252067, 7729781.263679007999599 ], [ 665487.086374304373749, 7729365.05943307839334 ], [ 666430.482665077550337, 7730062.432769590988755 ], [ 665616.572139704599977, 7730417.593726118095219 ], [ 664900.70083670609165, 7730347.301453472115099 ] ] ] } },
{ "type": "Feature", "properties": { "class_id": 5, "class_name": "Cloud" }, "geometry": { "type": "Polygon", "coordinates": [ [ [ 663271.029989311587997, 7732507.86393900308758 ], [ 663690.933828538050875, 7731629.210530930198729 ], [ 664982.09188924334012, 7732424.623089817352593 ], [ 664077.541328090243042, 7732594.804381486028433 ], [ 663271.029989311587997, 7732507.86393900308758 ] ] ] } },
{ "type": "Feature", "properties": { "class_id": 5, "class_name": "Cloud" }, "geometry": { "type": "Polygon", "coordinates": [ [ [ 653888.861387739540078, 7724919.998086549341679 ], [ 654443.800382311921567, 7723758.325791244395077 ], [ 655427.892199353780597, 7724450.149737811647356 ], [ 654421.60282252903562, 7725030.985885463654995 ], [ 653888.861387739540078, 7724919.998086549341679 ] ] ] } },
{ "type": "Feature", "properties": { "class_id": 5, "class_name": "Cloud" }, "geometry": { "type": "Polygon", "coordinates": [ [ [ 660444.540710288914852, 7723053.553268138319254 ], [ 660339.102301320177503, 7722927.767096035182476 ], [ 660516.682779583381489, 7722824.17848371528089 ], [ 660568.477085743448697, 7722966.612825655378401 ], [ 660444.540710288914852, 7723053.553268138319254 ] ] ] } },
{ "type": "Feature", "properties": { "class_id": 5, "class_name": "Cloud" }, "geometry": { "type": "Polygon", "coordinates": [ [ [ 661086.420147344470024, 7723416.113411258906126 ], [ 661158.562216638820246, 7723177.48964359331876 ], [ 661310.24554182193242, 7723240.382729644887149 ], [ 661217.755709393182769, 7723425.362394502386451 ], [ 661086.420147344470024, 7723416.113411258906126 ] ] ] } },
{ "type": "Feature", "properties": { "class_id": 5, "class_name": "Cloud" }, "geometry": { "type": "Polygon", "coordinates": [ [ [ 657150.052879177150317, 7726690.253479233942926 ], [ 657233.293728363001719, 7726453.479508216492832 ], [ 657531.110988783533685, 7726286.997809845022857 ], [ 657492.265259163454175, 7726655.107342910952866 ], [ 657150.052879177150317, 7726690.253479233942926 ] ] ] } },
{ "type": "Feature", "properties": { "class_id": 5, "class_name": "Cloud" }, "geometry": { "type": "Polygon", "coordinates": [ [ [ 651354.639979191822931, 7726780.893515012226999 ], [ 651132.664381362847053, 7726151.962654496543109 ], [ 651905.87938046711497, 7725404.644808472134173 ], [ 651979.87124641018454, 7726791.992294903844595 ], [ 651354.639979191822931, 7726780.893515012226999 ] ] ] } },
{ "type": "Feature", "properties": { "class_id": 5, "class_name": "Cloud" }, "geometry": { "type": "Polygon", "coordinates": [ [ [ 645740.507150767138228, 7718397.615103670395911 ], [ 645420.4923305636039, 7718175.639505840837955 ], [ 645777.503083738614805, 7717764.984649857506156 ], [ 646091.968513996340334, 7717955.513704660348594 ], [ 645740.507150767138228, 7718397.615103670395911 ] ] ] } },
{ "type": "Feature", "properties": { "class_id": 5, "class_name": "Cloud" }, "geometry": { "type": "Polygon", "coordinates": [ [ [ 645026.485644417349249, 7717406.124100033193827 ], [ 645028.335441065952182, 7717012.11741388682276 ], [ 645370.54782105225604, 7716938.125547943636775 ], [ 645148.572223223280162, 7717348.780403927899897 ], [ 645026.485644417349249, 7717406.124100033193827 ] ] ] } },
{ "type": "Feature", "properties": { "class_id": 5, "class_name": "Cloud" }, "geometry": { "type": "Polygon", "coordinates": [ [ [ 670426.043425999348983, 7730443.490879186429083 ], [ 670394.596882973564789, 7730210.416501466184855 ], [ 670771.955399282858707, 7729931.09720753133297 ], [ 670553.679394750972278, 7730635.869730638340116 ], [ 670426.043425999348983, 7730443.490879186429083 ] ] ] } },
{ "type": "Feature", "properties": { "class_id": 5, "class_name": "Cloud" }, "geometry": { "type": "Polygon", "coordinates": [ [ [ 672049.239985123625956, 7730375.973301514051855 ], [ 671975.248119180556387, 7730179.894856764934957 ], [ 672115.832664472283795, 7729998.614785204641521 ], [ 672049.239985123625956, 7729883.927392993122339 ], [ 671897.556659940397367, 7729747.042440998367965 ], [ 671912.355033128987998, 7729606.457895707339048 ], [ 672045.540391826420091, 7729547.264402952976525 ], [ 672145.429410849465057, 7729698.947728135623038 ], [ 672082.536324797896668, 7729850.631053319200873 ], [ 672167.626970632351004, 7729932.022105855867267 ], [ 672323.009889112669043, 7729954.219665639102459 ], [ 672371.104601975646801, 7729769.240000781603158 ], [ 672507.989553970168345, 7729798.836747158318758 ], [ 672563.483453427441418, 7729902.425359479151666 ], [ 672589.380606507416815, 7730009.713565096259117 ], [ 672519.08833386155311, 7730028.211531582288444 ], [ 672430.298094730009325, 7730028.211531582288444 ], [ 672367.405008678440936, 7729983.816412015818059 ], [ 672308.211515924078412, 7730054.108684661798179 ], [ 672323.009889112669043, 7730179.894856764934957 ], [ 672130.631037660874426, 7730313.080215462483466 ], [ 672089.935511392191984, 7730401.870454594492912 ], [ 672049.239985123625956, 7730375.973301514051855 ] ] ] } },
{ "type": "Feature", "properties": { "class_id": 5, "class_name": "Cloud" }, "geometry": { "type": "Polygon", "coordinates": [ [ [ 672578.281826616148464, 7728548.374212722294033 ], [ 672286.013956141308881, 7728111.822203658521175 ], [ 672807.656611039419658, 7727593.879142057150602 ], [ 673044.430582056986168, 7728326.398614892736077 ], [ 672578.281826616148464, 7728548.374212722294033 ] ] ] } },
{ "type": "Feature", "properties": { "class_id": 6, "class_name": "Cloud_shadow" }, "geometry": { "type": "Polygon", "coordinates": [ [ [ 673529.077303983503953, 7727321.959034716710448 ], [ 673344.097639126004651, 7727062.987503916025162 ], [ 673549.425067117786966, 7726841.011906086467206 ], [ 673782.499444838264026, 7726994.545027918182313 ], [ 673749.203105163876899, 7727218.37042239587754 ], [ 673529.077303983503953, 7727321.959034716710448 ] ] ] } },
{ "type": "Feature", "properties": { "class_id": 6, "class_name": "Cloud_shadow" }, "geometry": { "type": "Polygon", "coordinates": [ [ [ 674392.932338867918588, 7726582.040375286713243 ], [ 674302.29230308777187, 7726569.091798746027052 ], [ 674318.940472924965434, 7726502.499119397252798 ], [ 674330.039252816350199, 7726398.910507077351213 ], [ 674381.833558976533823, 7726384.112133888527751 ], [ 674513.169121025362983, 7726385.961930537596345 ], [ 674605.658953454112634, 7726354.51538751181215 ], [ 674592.710376914008521, 7726439.606033345684409 ], [ 674581.611597022623755, 7726543.194645666517317 ], [ 674594.560173562611453, 7726593.139155177399516 ], [ 674392.932338867918588, 7726582.040375286713243 ] ] ] } },
{ "type": "Feature", "properties": { "class_id": 6, "class_name": "Cloud_shadow" }, "geometry": { "type": "Polygon", "coordinates": [ [ [ 674690.749599288450554, 7728666.761198230087757 ], [ 674398.481728813610971, 7728380.042717700824142 ], [ 674527.967494213837199, 7728282.003495326265693 ], [ 674803.587194851483218, 7728520.627262992784381 ], [ 675032.961979274754412, 7728565.022382558323443 ], [ 675001.515436248970218, 7728635.314655204303563 ], [ 674690.749599288450554, 7728666.761198230087757 ] ] ] } },
{ "type": "Feature", "properties": { "class_id": 6, "class_name": "Cloud_shadow" }, "geometry": { "type": "Polygon", "coordinates": [ [ [ 675358.526189423864707, 7729169.905886643566191 ], [ 675393.672325746854767, 7728988.625815083272755 ], [ 675604.549143684329465, 7728774.049403848126531 ], [ 675565.703414064249955, 7729010.823374866507947 ], [ 675358.526189423864707, 7729169.905886643566191 ] ] ] } },
{ "type": "Feature", "properties": { "class_id": 6, "class_name": "Cloud_shadow" }, "geometry": { "type": "Polygon", "coordinates": [ [ [ 676605.289130563382059, 7729813.63512034714222 ], [ 676608.988723860471509, 7729665.651388460770249 ], [ 676723.676116072107106, 7729663.801591812632978 ], [ 676788.418998772278428, 7729608.30769235547632 ], [ 676892.007611092412844, 7729506.568876683712006 ], [ 676779.17001552938018, 7729822.884103589691222 ], [ 676605.289130563382059, 7729813.63512034714222 ] ] ] } },
{ "type": "Feature", "properties": { "class_id": 6, "class_name": "Cloud_shadow" }, "geometry": { "type": "Polygon", "coordinates": [ [ [ 674524.267900916398503, 7730651.593002150766551 ], [ 674161.707757795811631, 7730466.61333729326725 ], [ 674675.951226099627092, 7730178.045060115866363 ], [ 674640.805089776637033, 7730525.806830047629774 ], [ 674524.267900916398503, 7730651.593002150766551 ] ] ] } },
{ "type": "Feature", "properties": { "class_id": 6, "class_name": "Cloud_shadow" }, "geometry": { "type": "Polygon", "coordinates": [ [ [ 679650.054414117475972, 7732960.139219571836293 ], [ 679379.984103425522335, 7732453.294937862083316 ], [ 679601.959701254498214, 7732209.121780250221491 ], [ 679890.527978432248347, 7732897.246133520267904 ], [ 679650.054414117475972, 7732960.139219571836293 ] ] ] } },
{ "type": "Feature", "properties": { "class_id": 6, "class_name": "Cloud_shadow" }, "geometry": { "type": "Polygon", "coordinates": [ [ [ 661662.631803375086747, 7732867.649387144483626 ], [ 661703.327329643652774, 7732542.085176995024085 ], [ 661814.315128558198921, 7732072.236828257329762 ], [ 662117.68177892442327, 7731905.755129884928465 ], [ 662258.266324216150679, 7732516.188023914583027 ], [ 661662.631803375086747, 7732867.649387144483626 ] ] ] } },
{ "type": "Feature", "properties": { "class_id": 6, "class_name": "Cloud_shadow" }, "geometry": { "type": "Polygon", "coordinates": [ [ [ 663630.815437458804809, 7729125.510767076164484 ], [ 663669.661167078884318, 7728829.543303304351866 ], [ 663884.237578313564882, 7728681.559571417979896 ], [ 663915.684121339349076, 7729040.420121242292225 ], [ 663630.815437458804809, 7729125.510767076164484 ] ] ] } },
{ "type": "Feature", "properties": { "class_id": 6, "class_name": "Cloud_shadow" }, "geometry": { "type": "Polygon", "coordinates": [ [ [ 656953.049536103382707, 7721223.179484362713993 ], [ 656858.709907026030123, 7720990.105106642469764 ], [ 657023.341808749246411, 7720853.22015464771539 ], [ 657237.918219983926974, 7721186.183551391586661 ], [ 656953.049536103382707, 7721223.179484362713993 ] ] ] } },
{ "type": "Feature", "properties": { "class_id": 6, "class_name": "Cloud_shadow" }, "geometry": { "type": "Polygon", "coordinates": [ [ [ 672371.104601975064725, 7725235.388415123336017 ], [ 672439.547077972325496, 7724883.927051894366741 ], [ 672552.384673535474576, 7725224.289635231718421 ], [ 672371.104601975064725, 7725235.388415123336017 ] ] ] } },
{ "type": "Feature", "properties": { "class_id": 6, "class_name": "Cloud_shadow" }, "geometry": { "type": "Polygon", "coordinates": [ [ [ 671984.03465326083824, 7724551.426104313693941 ], [ 671870.734608535654843, 7724500.556696477346122 ], [ 671979.872610801481642, 7724458.011373559944332 ], [ 671990.508941530832089, 7724436.738712101243436 ], [ 672046.465290150255896, 7724499.631798152811825 ], [ 671984.03465326083824, 7724551.426104313693941 ] ] ] } },
{ "type": "Feature", "properties": { "class_id": 6, "class_name": "Cloud_shadow" }, "geometry": { "type": "Polygon", "coordinates": [ [ [ 674499.295646160608158, 7725180.356964826583862 ], [ 674463.224611513433047, 7725075.84345418214798 ], [ 674483.57237464771606, 7725025.898944671265781 ], [ 674606.583851777948439, 7725024.974046346731484 ], [ 674663.927547883824445, 7725158.159405044279993 ], [ 674589.010783616569825, 7725252.499034121632576 ], [ 674499.295646160608158, 7725180.356964826583862 ] ] ] } },
{ "type": "Feature", "properties": { "class_id": 6, "class_name": "Cloud_shadow" }, "geometry": { "type": "Polygon", "coordinates": [ [ [ 672766.498635608237237, 7723206.623940796591341 ], [ 672746.150872473837808, 7723025.343869236297905 ], [ 672868.23745127976872, 7723002.221411128528416 ], [ 672908.932977548451163, 7723214.023127391003072 ], [ 672766.498635608237237, 7723206.623940796591341 ] ] ] } }
]
}
