{
"type": "FeatureCollection",
"name": "training_polygons",
"crs": { "type": "name", "properties": { "name": "urn:ogc:def:crs:EPSG::32701" } },
"features": [
{ "type": "Feature", "properties": { "fid": 1, "class_id": 4, "class_name": "Cloud", "notes": null }, "geometry": { "type": "Polygon", "coordinates": [ [ [ 665803.214327231515199, 7728849.883238475769758 ], [ 665853.015419440343976, 7729053.23769832868129 ], [ 666019.01906013651751, 7729053.23769832868129 ], [ 666288.774976267945021, 7728804.232237284071743 ], [ 666056.369879293255508, 7728692.179779814556241 ], [ 665803.214327231515199, 7728849.883238475769758 ] ] ] } },
{ "type": "Feature", "properties": { "fid": 2, "class_id": 4, "class_name": "Cloud", "notes": null }, "geometry": { "type": "Polygon", "coordinates": [ [ [ 662333.738236680510454, 7733696.152024052105844 ], [ 662698.946246212231927, 7733891.206301869824529 ], [ 663167.906531178974546, 7733438.846380973234773 ], [ 663421.062083240714855, 7733505.24783725105226 ], [ 663653.467180215520784, 7733704.452206086367369 ], [ 663873.422004138003103, 7733978.358213235624135 ], [ 664039.425644834176637, 7733953.457667130976915 ], [ 664363.132744191796519, 7733422.246016902849078 ], [ 664155.628193321521394, 7733140.039827719330788 ], [ 663848.780838722130284, 7733016.315239261835814 ], [ 663338.319643581286073, 7733227.96988114900887 ], [ 662931.610723875463009, 7733427.174249985255301 ], [ 662508.301440100069158, 7733140.817969784140587 ], [ 662333.738236680510454, 7733696.152024052105844 ] ] ] } },
{ "type": "Feature", "properties": { "fid": 3, "class_id": 4, "class_name": "Cloud", "notes": null }, "geometry": { "type": "Polygon", "coordinates": [ [ [ 621990.962837168131955, 7732061.794305257499218 ], [ 622630.076853848644532, 7732551.505045311525464 ], [ 623439.344602242694236, 7732132.345852553844452 ], [ 622551.225124517921358, 7731356.278832298703492 ], [ 621990.962837168131955, 7732061.794305257499218 ] ] ] } },
{ "type": "Feature", "properties": { "fid": 4, "class_id": 4, "class_name": "Cloud", "notes": null }, "geometry": { "type": "Polygon", "coordinates": [ [ [ 703912.721998001565225, 7734859.99317373894155 ], [ 703875.371178844943643, 7734573.636893537826836 ], [ 704226.053869815659709, 7734602.687530660070479 ], [ 704230.203960833139718, 7735055.047451557591558 ], [ 703912.721998001565225, 7734859.99317373894155 ] ] ] } },
{ "type": "Feature", "properties": { "fid": 5, "class_id": 4, "class_name": "Cloud", "notes": null }, "geometry": { "type": "Polygon", "coordinates": [ [ [ 682160.019930269918405, 7731689.323636439628899 ], [ 681902.714287190814503, 7731324.115626907907426 ], [ 682537.678212853847072, 7730900.806343132629991 ], [ 682815.734311020118184, 7731992.280280710197985 ], [ 682160.019930269918405, 7731689.323636439628899 ] ] ] } },
{ "type": "Feature", "properties": { "fid": 6, "class_id": 4, "class_name": "Cloud", "notes": null }, "geometry": { "type": "Polygon", "coordinates": [ [ [ 627714.975872925017029, 7731900.978278324007988 ], [ 627412.019228654331528, 7730954.757526355795562 ], [ 628196.386430944083259, 7730913.256616181693971 ], [ 628325.03925248363521, 7731398.817265218123794 ], [ 628159.03561178734526, 7732029.631099863909185 ], [ 627714.975872925017029, 7731900.978278324007988 ] ] ] } },
{ "type": "Feature", "properties": { "fid": 7, "class_id": 4, "class_name": "Cloud", "notes": null }, "geometry": { "type": "Polygon", "coordinates": [ [ [ 607145.826889250194654, 7716016.622283290140331 ], [ 607131.630761236534454, 7715965.161319239996374 ], [ 607167.121081270626746, 7715943.867127220146358 ], [ 607181.317209284170531, 7715888.857131167314947 ], [ 607161.797533265431412, 7715800.131331082433462 ], [ 607223.905593325034715, 7715832.072619113139808 ], [ 607275.36655737448018, 7715810.77842709235847 ], [ 607273.592041372787207, 7715697.20940298307687 ], [ 607397.808161491993815, 7715628.003278916701674 ], [ 607401.357193495379761, 7715746.895851030945778 ], [ 607248.748817348969169, 7715933.22003121022135 ], [ 607145.826889250194654, 7716016.622283290140331 ] ] ] } },
{ "type": "Feature", "properties": { "fid": 8, "class_id": 4, "class_name": "Cloud", "notes": null }, "geometry": { "type": "Polygon", "coordinates": [ [ [ 608096.967466162866913, 7715340.088057641871274 ], [ 607999.369086069171317, 7715208.773873515427113 ], [ 608112.938110178220086, 7715020.675177334807813 ], [ 608254.899390314356424, 7715148.440329457633197 ], [ 608272.64455033140257, 7715290.401609594002366 ], [ 608096.967466162866913, 7715340.088057641871274 ] ] ] } },
{ "type": "Feature", "properties": { "fid": 9, "class_id": 4, "class_name": "Cloud", "notes": null }, "geometry": { "type": "Polygon", "coordinates": [ [ [ 681806.813144893269055, 7725110.573163014836609 ], [ 681821.009272906929255, 7724826.650602742098272 ], [ 681977.166681056725793, 7724684.689322605729103 ], [ 681821.009272906929255, 7724507.237722435966134 ], [ 682090.735705165774561, 7724354.629346289671957 ], [ 682133.324089206638746, 7724585.316426510922611 ], [ 682360.462137424619868, 7724659.846098582260311 ], [ 682474.031161533552222, 7724954.415754864923656 ], [ 682172.363441244116984, 7725185.102835086174309 ], [ 681806.813144893269055, 7725110.573163014836609 ] ] ] } },
{ "type": "Feature", "properties": { "fid": 10, "class_id": 4, "class_name": "Cloud", "notes": null }, "geometry": { "type": "Polygon", "coordinates": [ [ [ 682540.070218165637925, 7724262.537289348430932 ], [ 682683.865904218633659, 7723757.198164076544344 ], [ 682971.457276324508712, 7724085.874017911963165 ], [ 682540.070218165637925, 7724262.537289348430932 ] ] ] } },
{ "type": "Feature", "properties": { "fid": 11, "class_id": 4, "class_name": "Cloud", "notes": null }, "geometry": { "type": "Polygon", "coordinates": [ [ [ 611784.375783760799095, 7764821.137652632780373 ], [ 611936.388366159633733, 7764360.99145726300776 ], [ 612174.678360190242529, 7764225.412667555734515 ], [ 612104.834741250262596, 7763867.977676509879529 ], [ 612540.330247582052834, 7763752.941127668134868 ], [ 612630.716107386862859, 7764007.664914390072227 ], [ 612260.955771822016686, 7764414.401283511891961 ], [ 612297.931805378524587, 7764488.353350624442101 ], [ 612010.340433272533119, 7764800.595411768183112 ], [ 611784.375783760799095, 7764821.137652632780373 ] ] ] } },
{ "type": "Feature", "properties": { "fid": 12, "class_id": 4, "class_name": "Cloud", "notes": null }, "geometry": { "type": "Polygon", "coordinates": [ [ [ 653522.100772677338682, 7724948.648134229704738 ], [ 653739.848525843350217, 7724217.344359446316957 ], [ 654117.825757753918879, 7723974.945917243137956 ], [ 654487.586093318765052, 7723790.065749460831285 ], [ 655120.287111951736733, 7723707.896786001510918 ], [ 655576.324859148357064, 7724196.802118581719697 ], [ 655338.034865117748268, 7724480.285042515024543 ], [ 654454.718507935176603, 7725055.467786726541817 ], [ 653522.100772677338682, 7724948.648134229704738 ] ] ] } },
{ "type": "Feature", "properties": { "fid": 13, "class_id": 4, "class_name": "Cloud", "notes": null }, "geometry": { "type": "Polygon", "coordinates": [ [ [ 652556.615452036028728, 7725445.77036315575242 ], [ 652486.771833096048795, 7724615.863832221366465 ], [ 653238.617848744383082, 7724447.417457130737603 ], [ 652988.002510194899514, 7725215.697265471331775 ], [ 652556.615452036028728, 7725445.77036315575242 ] ] ] } },
{ "type": "Feature", "properties": { "fid": 14, "class_id": 4, "class_name": "Cloud", "notes": null }, "geometry": { "type": "Polygon", "coordinates": [ [ [ 634135.874512629234232, 7720757.003885786049068 ], [ 634104.547595310490578, 7720489.954754543490708 ], [ 634298.158215460949577, 7720507.929215300828218 ], [ 634389.571187309105881, 7720768.302118261344731 ], [ 634135.874512629234232, 7720757.003885786049068 ] ] ] } },
{ "type": "Feature", "properties": { "fid": 15, "class_id": 1, "class_name": "Ocean_water", "notes": null }, "geometry": { "type": "Polygon", "coordinates": [ [ [ 664234.879383705439977, 7726429.743700596503913 ], [ 664263.638520916108973, 7725106.823388905264437 ], [ 665340.051942229853012, 7725299.920453034341335 ], [ 665331.835045883897692, 7726290.056462716311216 ], [ 664234.879383705439977, 7726429.743700596503913 ] ] ] } },
{ "type": "Feature", "properties": { "fid": 16, "class_id": 1, "class_name": "Ocean_water", "notes": null }, "geometry": { "type": "Polygon", "coordinates": [ [ [ 677217.575610238010995, 7721105.194868451915681 ], [ 677151.840439470717683, 7718656.559757371433079 ], [ 679551.174172475351952, 7718968.801818516105413 ], [ 679255.365904022706673, 7721072.327283067628741 ], [ 677217.575610238010995, 7721105.194868451915681 ] ] ] } },
{ "type": "Feature", "properties": { "fid": 17, "class_id": 1, "class_name": "Ocean_water", "notes": null }, "geometry": { "type": "Polygon", "coordinates": [ [ [ 690791.888373675057665, 7707637.70175751298666 ], [ 690192.054940423928201, 7706257.263171400874853 ], [ 694012.91174127033446, 7705575.260774690657854 ], [ 693396.644515327294357, 7708927.754483819939196 ], [ 690791.888373675057665, 7707637.70175751298666 ] ] ] } },
{ "type": "Feature", "properties": { "fid": 18, "class_id": 1, "class_name": "Ocean_water", "notes": null }, "geometry": { "type": "Polygon", "coordinates": [ [ [ 682262.749966624192894, 7711031.279948374256492 ], [ 683117.307186598423868, 7708845.585520363412797 ], [ 685155.097480383235961, 7710612.218234733678401 ], [ 682837.932710837689228, 7711097.015119140967727 ], [ 682262.749966624192894, 7711031.279948374256492 ] ] ] } },
{ "type": "Feature", "properties": { "fid": 19, "class_id": 1, "class_name": "Ocean_water", "notes": null }, "geometry": { "type": "Polygon", "coordinates": [ [ [ 676280.849426805158146, 7712181.645436803810298 ], [ 678022.831452137324959, 7709486.50343534629792 ], [ 678877.388672111555934, 7711688.631656048819423 ], [ 676280.849426805158146, 7712181.645436803810298 ] ] ] } },
{ "type": "Feature", "properties": { "fid": 20, "class_id": 1, "class_name": "Ocean_water", "notes": null }, "geometry": { "type": "Polygon", "coordinates": [ [ [ 663626.829054109635763, 7701105.269162521697581 ], [ 662016.317370311939158, 7695123.368622702546418 ], [ 670036.00820391648449, 7701696.885699426755309 ], [ 663626.829054109635763, 7701105.269162521697581 ] ] ] } },
{ "type": "Feature", "properties": { "fid": 21, "class_id": 1, "class_name": "Ocean_water", "notes": null }, "geometry": { "type": "Polygon", "coordinates": [ [ [ 657086.179562768200412, 7712115.910266036167741 ], [ 657086.179562768200412, 7708533.343459221534431 ], [ 662673.669077984406613, 7712378.850949104875326 ], [ 657086.179562768200412, 7712115.910266036167741 ] ] ] } },
{ "type": "Feature", "properties": { "fid": 22, "class_id": 1, "class_name": "Ocean_water", "notes": null }, "geometry": { "type": "Polygon", "coordinates": [ [ [ 625270.35691141942516, 7719831.575934843160212 ], [ 625360.7427712243516, 7718586.716138440184295 ], [ 627497.135821160045452, 7718027.967186918482184 ], [ 627891.546845763572492, 7719359.104394955560565 ], [ 628589.983035165583715, 7720262.962993005290627 ], [ 626264.601369274081662, 7719967.154724552296102 ], [ 625270.35691141942516, 7719831.575934843160212 ] ] ] } },
{ "type": "Feature", "properties": { "fid": 23, "class_id": 1, "class_name": "Ocean_water", "notes": null }, "geometry": { "type": "Polygon", "coordinates": [ [ [ 652599.754157904302701, 7772933.268570262938738 ], [ 652468.283816369716078, 7771552.829984150826931 ], [ 654538.941695538116619, 7772670.327887194231153 ], [ 652599.754157904302701, 7772933.268570262938738 ] ] ] } },
{ "type": "Feature", "properties": { "fid": 24, "class_id": 1, "class_name": "Ocean_water", "notes": null }, "geometry": { "type": "Polygon", "coordinates": [ [ [ 654473.206524770939723, 7766491.221835071220994 ], [ 656593.165782014722936, 7764206.924650909379125 ], [ 655968.681659725843929, 7765899.605298166163266 ], [ 654473.206524770939723, 7766491.221835071220994 ] ] ] } },
{ "type": "Feature", "properties": { "fid": 25, "class_id": 1, "class_name": "Ocean_water", "notes": null }, "geometry": { "type": "Polygon", "coordinates": [ [ [ 660849.518089194200002, 7761331.010929842479527 ], [ 660586.57740612514317, 7759605.462697202339768 ], [ 663380.322163733304478, 7760147.777856031432748 ], [ 662722.970456060720608, 7761676.120576370507479 ], [ 660849.518089194200002, 7761331.010929842479527 ] ] ] } },
{ "type": "Feature", "properties": { "fid": 26, "class_id": 1, "class_name": "Ocean_water", "notes": null }, "geometry": { "type": "Polygon", "coordinates": [ [ [ 652780.525877514271997, 7763204.463296708650887 ], [ 654341.736183236469515, 7759736.933038736693561 ], [ 654308.868597852764651, 7762432.075040193274617 ], [ 652780.525877514271997, 7763204.463296708650887 ] ] ] } },
{ "type": "Feature", "properties": { "fid": 27, "class_id": 1, "class_name": "Ocean_water", "notes": null }, "geometry": { "type": "Polygon", "coordinates": [ [ [ 666568.477945944643579, 7745899.679592231288552 ], [ 669214.318569326540455, 7743105.934834622777998 ], [ 665713.920725970412605, 7742284.245200032368302 ], [ 664136.276627556420863, 7745193.026506482623518 ], [ 666568.477945944643579, 7745899.679592231288552 ] ] ] } },
{ "type": "Feature", "properties": { "fid": 28, "class_id": 1, "class_name": "Ocean_water", "notes": null }, "geometry": { "type": "Polygon", "coordinates": [ [ [ 629592.444389366894029, 7743582.514822686091065 ], [ 629723.914730901364237, 7741248.91626044921577 ], [ 631761.705024686059915, 7740460.094211242161691 ], [ 632451.924317742232233, 7743911.190676522441208 ], [ 629592.444389366894029, 7743582.514822686091065 ] ] ] } },
{ "type": "Feature", "properties": { "fid": 29, "class_id": 1, "class_name": "Ocean_water", "notes": null }, "geometry": { "type": "Polygon", "coordinates": [ [ [ 666042.596579806646332, 7735809.330879461020231 ], [ 669312.9213254773058, 7733705.805414908565581 ], [ 666239.802092108409852, 7733689.371622216887772 ], [ 666042.596579806646332, 7735809.330879461020231 ] ] ] } },
{ "type": "Feature", "properties": { "fid": 30, "class_id": 2, "class_name": "Bare_soil", "notes": null }, "geometry": { "type": "Polygon", "coordinates": [ [ [ 666847.852421705378219, 7727602.705653987824917 ], [ 666775.95457867870573, 7727493.831777404993773 ], [ 666895.099575694301166, 7727421.933934378437698 ], [ 666983.431211412884295, 7727549.295827739872038 ], [ 666847.852421705378219, 7727602.705653987824917 ] ] ] } },
{ "type": "Feature", "properties": { "fid": 31, "class_id": 2, "class_name": "Bare_soil", "notes": null }, "geometry": { "type": "Polygon", "coordinates": [ [ [ 667003.973452277597971, 7727467.126864280551672 ], [ 667168.311379195773043, 7727417.825486205518246 ], [ 667190.907844146946445, 7727493.831777404993773 ], [ 667057.383278526016511, 7727541.078931394033134 ], [ 667003.973452277597971, 7727467.126864280551672 ] ] ] } },
{ "type": "Feature", "properties": { "fid": 32, "class_id": 2, "class_name": "Bare_soil", "notes": null }, "geometry": { "type": "Polygon", "coordinates": [ [ [ 667338.811978373327293, 7727384.957900821231306 ], [ 667353.19154697866179, 7727179.535492174327374 ], [ 667447.685854956507683, 7727181.589716260321438 ], [ 667431.252062264713459, 7727372.632556302472949 ], [ 667338.811978373327293, 7727384.957900821231306 ] ] ] } },
{ "type": "Feature", "properties": { "fid": 33, "class_id": 2, "class_name": "Bare_soil", "notes": null }, "geometry": { "type": "Polygon", "coordinates": [ [ [ 666787.76636717596557, 7727158.993251307867467 ], [ 666644.484237144119106, 7727042.92959042172879 ], [ 666832.95929707842879, 7727042.416034399531782 ], [ 666787.76636717596557, 7727158.993251307867467 ] ] ] } },
{ "type": "Feature", "properties": { "fid": 34, "class_id": 2, "class_name": "Bare_soil", "notes": null }, "geometry": { "type": "Polygon", "coordinates": [ [ [ 666661.945141879259609, 7726940.218386097811162 ], [ 666666.053590052179061, 7726877.564551459625363 ], [ 666890.477571499766782, 7726879.618775546550751 ], [ 666839.121969337807968, 7726993.628212345764041 ], [ 666661.945141879259609, 7726940.218386097811162 ] ] ] } },
{ "type": "Feature", "properties": { "fid": 35, "class_id": 2, "class_name": "Bare_soil", "notes": null }, "geometry": { "type": "Polygon", "coordinates": [ [ [ 668285.295726216747425, 7728044.107054570689797 ], [ 668193.882754369522445, 7728009.185245100408792 ], [ 668281.700834065442905, 7727959.370311004109681 ], [ 668285.295726216747425, 7728044.107054570689797 ] ] ] } },
{ "type": "Feature", "properties": { "fid": 36, "class_id": 2, "class_name": "Bare_soil", "notes": null }, "geometry": { "type": "Polygon", "coordinates": [ [ [ 668479.933458408457227, 7728072.352635758928955 ], [ 668513.828155834926292, 7727880.282683675177395 ], [ 668718.223452437086962, 7728048.729058764874935 ], [ 668479.933458408457227, 7728072.352635758928955 ] ] ] } },
{ "type": "Feature", "properties": { "fid": 37, "class_id": 2, "class_name": "Bare_soil", "notes": null }, "geometry": { "type": "Polygon", "coordinates": [ [ [ 668272.456825676723383, 7728287.01905279327184 ], [ 668155.366052748868242, 7728114.46422953158617 ], [ 668342.30044461612124, 7728163.765607606619596 ], [ 668338.191996443201788, 7728330.157758609391749 ], [ 668272.456825676723383, 7728287.01905279327184 ] ] ] } },
{ "type": "Feature", "properties": { "fid": 38, "class_id": 2, "class_name": "Bare_soil", "notes": null }, "geometry": { "type": "Polygon", "coordinates": [ [ [ 667495.960120997508056, 7727432.461832832545042 ], [ 667483.6347764787497, 7727268.123905916698277 ], [ 667557.586843591067009, 7727255.79856139793992 ], [ 667652.081151567981578, 7727551.606829847209156 ], [ 667495.960120997508056, 7727432.461832832545042 ] ] ] } },
{ "type": "Feature", "properties": { "fid": 39, "class_id": 2, "class_name": "Bare_soil", "notes": null }, "geometry": { "type": "Polygon", "coordinates": [ [ [ 667340.866202470147982, 7727768.841026989743114 ], [ 667579.669752520509064, 7727844.84731818921864 ], [ 667440.496070663211867, 7727658.940038364380598 ], [ 667340.866202470147982, 7727768.841026989743114 ] ] ] } },
{ "type": "Feature", "properties": { "fid": 40, "class_id": 2, "class_name": "Bare_soil", "notes": null }, "geometry": { "type": "Polygon", "coordinates": [ [ [ 668320.731091708876193, 7728021.510589623823762 ], [ 668304.297299017314799, 7727853.064214534126222 ], [ 668361.815573437954299, 7727786.301931724883616 ], [ 668378.249366129632108, 7728037.944382315501571 ], [ 668320.731091708876193, 7728021.510589623823762 ] ] ] } },
{ "type": "Feature", "properties": { "fid": 41, "class_id": 2, "class_name": "Bare_soil", "notes": null }, "geometry": { "type": "Polygon", "coordinates": [ [ [ 668073.197089291410521, 7727541.849265437573195 ], [ 668245.751912553561851, 7727603.475988031364977 ], [ 668206.721654910943471, 7727424.758492509834468 ], [ 668073.197089291410521, 7727541.849265437573195 ] ] ] } },
{ "type": "Feature", "properties": { "fid": 42, "class_id": 2, "class_name": "Bare_soil", "notes": null }, "geometry": { "type": "Polygon", "coordinates": [ [ [ 667448.712967009167187, 7727564.445730390027165 ], [ 667371.679563767160289, 7727392.918019170872867 ], [ 667577.101972412550822, 7727291.233926891349256 ], [ 667714.734986205003224, 7727558.283058131113648 ], [ 667448.712967009167187, 7727564.445730390027165 ] ] ] } },
{ "type": "Feature", "properties": { "fid": 43, "class_id": 2, "class_name": "Bare_soil", "notes": null }, "geometry": { "type": "Polygon", "coordinates": [ [ [ 667091.277975966106169, 7727542.876377482898533 ], [ 667203.23318867792841, 7727723.648097090423107 ], [ 667363.462667421321385, 7727683.590727404691279 ], [ 667263.8327992282575, 7727370.321554220281541 ], [ 667091.277975966106169, 7727542.876377482898533 ] ] ] } },
{ "type": "Feature", "properties": { "fid": 44, "class_id": 3, "class_name": "Vegetation", "notes": null }, "geometry": { "type": "Polygon", "coordinates": [ [ [ 666434.696602333453484, 7727448.638847514055669 ], [ 666394.382454636739567, 7727391.890907125547528 ], [ 666517.89267783483956, 7727308.181275603361428 ], [ 666543.056922893854789, 7727373.402890347875655 ], [ 666434.696602333453484, 7727448.638847514055669 ] ] ] } },
{ "type": "Feature", "properties": { "fid": 45, "class_id": 3, "class_name": "Vegetation", "notes": null }, "geometry": { "type": "Polygon", "coordinates": [ [ [ 666509.162225467152894, 7727532.091701026074588 ], [ 666509.675781488767825, 7727467.383642302826047 ], [ 666636.524118827306665, 7727421.677156379446387 ], [ 666638.578342913766392, 7727475.086982627399266 ], [ 666509.162225467152894, 7727532.091701026074588 ] ] ] } },
{ "type": "Feature", "properties": { "fid": 46, "class_id": 3, "class_name": "Vegetation", "notes": null }, "geometry": { "type": "Polygon", "coordinates": [ [ [ 666413.127249426208436, 7726986.695206072181463 ], [ 666335.066734140971676, 7726872.685769273899496 ], [ 666398.747680820990354, 7726859.333312712609768 ], [ 666458.320179328205995, 7726978.478309726342559 ], [ 666413.127249426208436, 7726986.695206072181463 ] ] ] } },
{ "type": "Feature", "properties": { "fid": 47, "class_id": 3, "class_name": "Vegetation", "notes": null }, "geometry": { "type": "Polygon", "coordinates": [ [ [ 666191.271048089140095, 7726910.688914873637259 ], [ 666119.373205063282512, 7726830.574175502173603 ], [ 666318.632941449293867, 7726764.839004735462368 ], [ 666349.446302746073343, 7726878.848441533744335 ], [ 666191.271048089140095, 7726910.688914873637259 ] ] ] } },
{ "type": "Feature", "properties": { "fid": 48, "class_id": 3, "class_name": "Vegetation", "notes": null }, "geometry": { "type": "Polygon", "coordinates": [ [ [ 666100.885188285144977, 7726838.791071848012507 ], [ 666061.854930642526597, 7726673.426032888703048 ], [ 666138.888333884533495, 7726625.151766856200993 ], [ 666356.636087048682384, 7726821.330167112872005 ], [ 666100.885188285144977, 7726838.791071848012507 ] ] ] } },
{ "type": "Feature", "properties": { "fid": 49, "class_id": 3, "class_name": "Vegetation", "notes": null }, "geometry": { "type": "Polygon", "coordinates": [ [ [ 666080.342947420664132, 7726738.13409161195159 ], [ 666059.800706556066871, 7726645.694007720798254 ], [ 666170.728807224659249, 7726565.579268349334598 ], [ 666229.274193688528612, 7726692.941161709837615 ], [ 666080.342947420664132, 7726738.13409161195159 ] ] ] } },
{ "type": "Feature", "properties": { "fid": 50, "class_id": 3, "class_name": "Vegetation", "notes": null }, "geometry": { "type": "Polygon", "coordinates": [ [ [ 666070.842161020613275, 7726578.161390877328813 ], [ 666088.303065755520947, 7726485.978084998205304 ], [ 666175.864367440575734, 7726488.289087095297873 ], [ 666210.272620888659731, 7726614.110312390141189 ], [ 666070.842161020613275, 7726578.161390877328813 ] ] ] } },
{ "type": "Feature", "properties": { "fid": 51, "class_id": 3, "class_name": "Vegetation", "notes": null }, "geometry": { "type": "Polygon", "coordinates": [ [ [ 668391.345044681918807, 7728465.222992297261953 ], [ 668500.218921263935044, 7728370.728684320114553 ], [ 668691.26176130422391, 7728273.153040213510394 ], [ 668679.963528828695416, 7728392.298037228174508 ], [ 668460.161551578086801, 7728462.141656167805195 ], [ 668391.345044681918807, 7728465.222992297261953 ] ] ] } },
{ "type": "Feature", "properties": { "fid": 52, "class_id": 3, "class_name": "Vegetation", "notes": null }, "geometry": { "type": "Polygon", "coordinates": [ [ [ 668702.559993779635988, 7728369.701572277583182 ], [ 668663.529736137017608, 7728287.532608819194138 ], [ 668856.626800263766199, 7728245.421015046536922 ], [ 668873.060592955327593, 7728370.728684320114553 ], [ 668702.559993779635988, 7728369.701572277583182 ] ] ] } },
{ "type": "Feature", "properties": { "fid": 53, "class_id": 3, "class_name": "Vegetation", "notes": null }, "geometry": { "type": "Polygon", "coordinates": [ [ [ 668833.003223269479349, 7728326.562866461463273 ], [ 668805.271198102389462, 7728243.366790960542858 ], [ 669050.750976433628239, 7728183.79429245274514 ], [ 669032.262959655607119, 7728292.668169035576284 ], [ 668833.003223269479349, 7728326.562866461463273 ] ] ] } },
{ "type": "Feature", "properties": { "fid": 54, "class_id": 3, "class_name": "Vegetation", "notes": null }, "geometry": { "type": "Polygon", "coordinates": [ [ [ 669043.561192130902782, 7728270.071704084053636 ], [ 669011.720718790893443, 7728178.658732237294316 ], [ 669350.667693055816926, 7728015.347917363978922 ], [ 669335.26101240736898, 7728119.086233729496598 ], [ 669043.561192130902782, 7728270.071704084053636 ] ] ] } },
{ "type": "Feature", "properties": { "fid": 55, "class_id": 3, "class_name": "Vegetation", "notes": null }, "geometry": { "type": "Polygon", "coordinates": [ [ [ 669402.023295217193663, 7727998.914124672301114 ], [ 669066.157657081959769, 7728179.685844279825687 ], [ 669071.293217298109084, 7728266.990367954596877 ], [ 669391.752174784895033, 7728069.784855655394495 ], [ 669402.023295217193663, 7727998.914124672301114 ] ] ] } },
{ "type": "Feature", "properties": { "fid": 56, "class_id": 3, "class_name": "Vegetation", "notes": null }, "geometry": { "type": "Polygon", "coordinates": [ [ [ 668401.872943124733865, 7728450.58664568234235 ], [ 668377.222254087333567, 7728536.864057313650846 ], [ 668548.749965306255035, 7728467.020438374020159 ], [ 668493.799470993573777, 7728403.339491694234312 ], [ 668401.872943124733865, 7728450.58664568234235 ] ] ] } },
{ "type": "Feature", "properties": { "fid": 57, "class_id": 3, "class_name": "Vegetation", "notes": null }, "geometry": { "type": "Polygon", "coordinates": [ [ [ 668414.711843665223569, 7728462.398434178903699 ], [ 668453.742101307841949, 7728366.877014158293605 ], [ 668556.453305630479008, 7728465.479770308360457 ], [ 668414.711843665223569, 7728462.398434178903699 ] ] ] } },
{ "type": "Feature", "properties": { "fid": 58, "class_id": 5, "class_name": "Cloud_shadow", "notes": null }, "geometry": { "type": "Polygon", "coordinates": [ [ [ 680028.267716433736496, 7732793.729920470155776 ], [ 679769.4354815405095, 7732569.819495046511292 ], [ 679548.606392246671021, 7732844.058410587720573 ], [ 679946.098752975580283, 7732894.386900706216693 ], [ 680028.267716433736496, 7732793.729920470155776 ] ] ] } },
{ "type": "Feature", "properties": { "fid": 59, "class_id": 5, "class_name": "Cloud_shadow", "notes": null }, "geometry": { "type": "Polygon", "coordinates": [ [ [ 679734.513672070694156, 7732214.438728089444339 ], [ 679772.516817670199089, 7732395.210447697900236 ], [ 679491.088117825915106, 7732446.566049858927727 ], [ 679532.172599554993212, 7732185.679590879008174 ], [ 679734.513672070694156, 7732214.438728089444339 ] ] ] } },
{ "type": "Feature", "properties": { "fid": 60, "class_id": 5, "class_name": "Cloud_shadow", "notes": null }, "geometry": { "type": "Polygon", "coordinates": [ [ [ 697811.685632866807282, 7732242.170753254555166 ], [ 697645.29348186403513, 7731923.766019854694605 ], [ 697912.34261310310103, 7731847.759728655219078 ], [ 698008.891145166475326, 7732184.652478833682835 ], [ 697811.685632866807282, 7732242.170753254555166 ] ] ] } },
{ "type": "Feature", "properties": { "fid": 61, "class_id": 5, "class_name": "Cloud_shadow", "notes": null }, "geometry": { "type": "Polygon", "coordinates": [ [ [ 705606.952484938665293, 7725226.481941994279623 ], [ 705331.686457353760488, 7724910.131432680413127 ], [ 705709.663689261302352, 7724819.745572876185179 ], [ 705956.170579635770991, 7725263.457975550554693 ], [ 705606.952484938665293, 7725226.481941994279623 ] ] ] } },
{ "type": "Feature", "properties": { "fid": 62, "class_id": 5, "class_name": "Cloud_shadow", "notes": null }, "geometry": { "type": "Polygon", "coordinates": [ [ [ 661751.322463229880668, 7732718.237185290083289 ], [ 661876.630132503574714, 7731982.824962339363992 ], [ 662312.125638831872493, 7732054.722805365920067 ], [ 662133.408143310341984, 7732765.484339278191328 ], [ 661751.322463229880668, 7732718.237185290083289 ] ] ] } },
{ "type": "Feature", "properties": { "fid": 63, "class_id": 5, "class_name": "Cloud_shadow", "notes": null }, "geometry": { "type": "Polygon", "coordinates": [ [ [ 623390.741872786078602, 7724834.125141479074955 ], [ 623341.440494711161591, 7724678.004110909067094 ], [ 623618.760746382409707, 7724484.907046781852841 ], [ 623618.760746382409707, 7724365.76204976812005 ], [ 623807.749362336238846, 7724454.093685485422611 ], [ 623783.098673298838548, 7724579.401354759000242 ], [ 623390.741872786078602, 7724834.125141479074955 ] ] ] } },
{ "type": "Feature", "properties": { "fid": 64, "class_id": 5, "class_name": "Cloud_shadow", "notes": null }, "geometry": { "type": "Polygon", "coordinates": [ [ [ 624929.355713540338911, 7724041.194644109345973 ], [ 624951.952178491279483, 7723821.392666858620942 ], [ 625122.452777666971087, 7723731.006807055324316 ], [ 625255.977343286504038, 7723938.48343978729099 ], [ 624929.355713540338911, 7724041.194644109345973 ] ] ] } },
{ "type": "Feature", "properties": { "fid": 65, "class_id": 5, "class_name": "Cloud_shadow", "notes": null }, "geometry": { "type": "Polygon", "coordinates": [ [ [ 615338.183453886304051, 7731502.136526112444699 ], [ 615116.327252549235709, 7731239.195843045599759 ], [ 615338.183453886304051, 7730947.496022769249976 ], [ 615416.243969171540812, 7731382.991529097780585 ], [ 615338.183453886304051, 7731502.136526112444699 ] ] ] } },
{ "type": "Feature", "properties": { "fid": 66, "class_id": 5, "class_name": "Cloud_shadow", "notes": null }, "geometry": { "type": "Polygon", "coordinates": [ [ [ 609569.922219123342074, 7732093.753063009120524 ], [ 609327.523776921676472, 7731876.005309844389558 ], [ 609532.94618556718342, 7731547.329456011764705 ], [ 609635.657389889820479, 7731580.197041395120323 ], [ 609537.054633739986457, 7731871.896861671470106 ], [ 609647.982734408578835, 7732036.234788588248193 ], [ 609569.922219123342074, 7732093.753063009120524 ] ] ] } },
{ "type": "Feature", "properties": { "fid": 67, "class_id": 5, "class_name": "Cloud_shadow", "notes": null }, "geometry": { "type": "Polygon", "coordinates": [ [ [ 613803.67806130554527, 7718778.2725346153602 ], [ 613696.858408809988759, 7718562.579005537554622 ], [ 613865.304783899220638, 7718172.276429111137986 ], [ 613896.118145196000114, 7718687.886674811132252 ], [ 613803.67806130554527, 7718778.2725346153602 ] ] ] } },
{ "type": "Feature", "properties": { "fid": 68, "class_id": 5, "class_name": "Cloud_shadow", "notes": null }, "geometry": { "type": "Polygon", "coordinates": [ [ [ 606474.206520837265998, 7715820.189850124530494 ], [ 606663.195136790978722, 7715540.815374366939068 ], [ 606839.858408226049505, 7715532.598478021100163 ], [ 606700.171170347137377, 7715816.081401951611042 ], [ 606474.206520837265998, 7715820.189850124530494 ] ] ] } },
{ "type": "Feature", "properties": { "fid": 69, "class_id": 5, "class_name": "Cloud_shadow", "notes": null }, "geometry": { "type": "Polygon", "coordinates": [ [ [ 610019.797294057207182, 7712816.914235727861524 ], [ 609978.712812328129075, 7712742.962168615311384 ], [ 610241.653495394275524, 7712607.383378908969462 ], [ 610138.94229107152205, 7712800.480443036183715 ], [ 610019.797294057207182, 7712816.914235727861524 ] ] ] } },
{ "type": "Feature", "properties": { "fid": 70, "class_id": 5, "class_name": "Cloud_shadow", "notes": null }, "geometry": { "type": "Polygon", "coordinates": [ [ [ 605896.96955254371278, 7712572.46156943961978 ], [ 605872.318863506312482, 7712436.88277973420918 ], [ 606100.337737102760002, 7712346.496919929981232 ], [ 606129.096874313079752, 7712572.46156943961978 ], [ 605896.96955254371278, 7712572.46156943961978 ] ] ] } },
{ "type": "Feature", "properties": { "fid": 71, "class_id": 5, "class_name": "Cloud_shadow", "notes": null }, "geometry": { "type": "Polygon", "coordinates": [ [ [ 604709.628030573367141, 7713344.849825948476791 ], [ 604598.699929904774763, 7713139.427417303435504 ], [ 604742.495615956606343, 7713143.535865476354957 ], [ 604742.495615956606343, 7713299.656896046362817 ], [ 604709.628030573367141, 7713344.849825948476791 ] ] ] } },
{ "type": "Feature", "properties": { "fid": 72, "class_id": 1, "class_name": "Ocean_water", "notes": null }, "geometry": { "type": "Polygon", "coordinates": [ [ [ 602951.212212568731047, 7711886.350724566727877 ], [ 602655.403944119345397, 7710777.069717881269753 ], [ 604627.459067115210928, 7710645.599376347847283 ], [ 604200.180457132752053, 7711919.218309950083494 ], [ 602951.212212568731047, 7711886.350724566727877 ] ] ] } }
]
}
